ONEWEB-0709             
1 55172U 23004AJ  25206.42527287  .00000568  00000+0  15664-2 0  9993
2 55172  87.8810  86.2249 0002011  51.9133 308.2176 13.11417104123041
ONEWEB-0710             
1 55173U 23004AK  25207.13386334  .00000114  00000+0  26060-3 0  9999
2 55173  87.9037  70.7795 0001586  85.5542 274.5770 13.17649552124643
ONEWEB-0711             
1 55174U 23004AL  25207.15940635 -.00000350  00000+0 -10231-2 0  9998
2 55174  87.8811  86.0459 0001163 100.0534 260.0726 13.11417700123119
ONEWEB-0713             
1 55175U 23004AM  25206.72028408  .00000375  00000+0  10214-2 0  9992
2 55175  87.8811  86.1408 0001533  85.1218 275.0085 13.11418631123037
ONEWEB-0715             
1 55176U 23004AN  25206.71519908  .00000096  00000+0  23515-3 0  9991
2 55176  87.8813  86.1425 0001630  67.3327 292.7973 13.11418132123072
ONEWEB-0716             
1 55177U 23004AP  25207.12711495  .00000047  00000+0  87471-4 0  9991
2 55177  87.9037  70.7807 0001998  84.0844 276.0515 13.17649476124646
ONEWEB-0717             
1 55178U 23004AQ  25207.11023909  .00000108  00000+0  24518-3 0  9997
2 55178  87.9042  70.7431 0001063  94.2311 265.8942 13.17649509124693
ONEWEB-0719             
1 55179U 23004AR  25207.12036162  .00000138  00000+0  32225-3 0  9991
2 55179  87.9036  70.7247 0001930  88.1368 271.9985 13.17649083124646
ONEWEB-0530             
1 55796U 23029A   25206.73019723  .00000027  00000+0  35346-4 0  9998
2 55796  87.9290 339.5212 0001738 114.1577 245.9738 13.20772365118058
ONEWEB-0534             
1 55797U 23029B   25206.41455289  .00000049  00000+0  89706-4 0  9998
2 55797  87.9288 339.5908 0001996  98.1994 261.9366 13.20770736118019
ONEWEB-0556             
1 55798U 23029C   25206.42086505  .00000005  00000+0 -20744-4 0  9991
2 55798  87.9290 339.5821 0002476 113.0499 247.0895 13.20771964118014
ONEWEB-0562             
1 55799U 23029D   25206.93854170  .00000082  00000+0  16899-3 0  9998
2 55799  87.9284 339.4714 0002082 125.8434 234.2893 13.20770065118760
ONEWEB-0563             
1 55800U 23029E   25206.93222521 -.00004464  00000+0 -11011-1 0  9999
2 55800  87.9246 339.4927 0001976 108.6837 251.4511 13.20798709118756
ONEWEB-0564             
1 55801U 23029F   25206.31985969  .00000099  00000+0  21122-3 0  9998
2 55801  87.9278 339.5974 0001778 110.6755 249.4569 13.20771045118009
ONEWEB-0638             
1 55802U 23029G   25206.46718929  .00000090  00000+0  20891-3 0  9998
2 55802  87.9063 354.7768 0002159 108.0116 252.1249 13.14502703116479
ONEWEB-0639             
1 55803U 23029H   25207.01969195  .00000041  00000+0  69858-4 0  9997
2 55803  87.9230   9.8221 0002783  76.0842 284.0600 13.19725660116571
ONEWEB-0640             
1 55804U 23029J   25206.93340529  .00000200  00000+0  50429-3 0  9992
2 55804  87.9062 354.6712 0002512 101.2910 258.8502 13.14503821117230
ONEWEB-0641             
1 55805U 23029K   25207.01495245 -.00000262  00000+0 -68573-3 0  9998
2 55805  87.9230   9.7945 0002000  88.1058 272.0304 13.19724591116581
ONEWEB-0642             
1 55806U 23029L   25207.01023392 -.00000019  00000+0 -80030-4 0  9992
2 55806  87.9228   9.8328 0002408  72.9696 287.1700 13.19725167116572
ONEWEB-0643             
1 55807U 23029M   25207.13162633 -.00000225  00000+0 -64209-3 0  9996
2 55807  87.9063 354.6146 0001961  73.2485 286.8859 13.14503636117260
ONEWEB-0644             
1 55808U 23029N   25206.92967196 -.00000006  00000+0 -48066-4 0  9991
2 55808  87.9231   9.8542 0002124  80.0353 280.1020 13.19725867115878
ONEWEB-0645             
1 55809U 23029P   25207.15316687  .00000104  00000+0  22656-3 0  9994
2 55809  87.9212   9.8027 0002159  92.4513 267.6867 13.19724847116595
ONEWEB-0646             
1 55810U 23029Q   25206.95573751 -.00000022  00000+0 -87512-4 0  9994
2 55810  87.9214   9.8333 0001871  85.4412 274.6934 13.19724594116557
ONEWEB-0648             
1 55811U 23029R   25206.94768412  .00000173  00000+0  43104-3 0  9997
2 55811  87.9061 354.6269 0002650  83.4517 276.6914 13.14501314117242
ONEWEB-0649             
1 55812U 23029S   25207.14605922 -.00000009  00000+0 -54669-4 0  9996
2 55812  87.9225   9.7883 0002260  86.2031 273.9360 13.19726365116619
ONEWEB-0650             
1 55813U 23029T   25207.14131884 -.00000031  00000+0 -11032-3 0  9999
2 55813  87.9229   9.7997 0001925  87.2902 272.8451 13.19726079116582
ONEWEB-0652             
1 55814U 23029U   25206.92864514  .00000215  00000+0  54598-3 0  9994
2 55814  87.9064 354.6408 0001700  99.8778 260.2543 13.14503959116500
ONEWEB-0653             
1 55815U 23029V   25207.14114112 -.00000202  00000+0 -57862-3 0  9997
2 55815  87.9066 354.5886 0001922 102.7130 257.4215 13.14501611117254
ONEWEB-0654             
1 55816U 23029W   25206.90802622 -.00000176  00000+0 -50953-3 0  9995
2 55816  87.9057 354.6342 0001674 108.5662 251.5649 13.14502051116558
ONEWEB-0656             
1 55817U 23029X   25206.38928043 -.00000178  00000+0 -47020-3 0  9997
2 55817  87.9291 339.5257 0001696 112.3439 247.7874 13.20771324118013
ONEWEB-0657             
1 55818U 23029Y   25206.90913688 -.00000073  00000+0 -21582-3 0  9994
2 55818  87.9229   9.8504 0001052  85.7135 274.4118 13.19726691115873
ONEWEB-0658             
1 55819U 23029Z   25206.98020890 -.00000052  00000+0 -16140-3 0  9998
2 55819  87.9232   9.7699 0002077  80.3632 279.7735 13.19726388116577
ONEWEB-0660             
1 55820U 23029AA  25207.11417884 -.00000064  00000+0 -20584-3 0  9999
2 55820  87.9061 354.5641 0002168  95.7353 264.4024 13.14501040117279
ONEWEB-0661             
1 55821U 23029AB  25207.14906719 -.00000031  00000+0 -11853-3 0  9996
2 55821  87.9062 354.6286 0002198  98.6486 261.4893 13.14501719117240
ONEWEB-0662             
1 55822U 23029AC  25206.95559868  .00000036  00000+0  61519-4 0  9992
2 55822  87.9065 354.6737 0002162  92.9569 267.1809 13.14501338117286
ONEWEB-0663             
1 55823U 23029AD  25206.89865825 -.00000016  00000+0 -70837-4 0  9992
2 55823  87.9298 339.4793 0002269  92.6740 267.4653 13.20841212118077
ONEWEB-0664             
1 55824U 23029AE  25207.13424278 -.00000012  00000+0 -61111-4 0  9995
2 55824  87.9294 339.4551 0002114 106.9938 253.1427 13.20771280118790
ONEWEB-0665             
1 55825U 23029AF  25207.14590661 -.00000057  00000+0 -18936-3 0  9992
2 55825  87.9065 354.6035 0002075  93.0556 267.0812 13.14503194117264
ONEWEB-0666             
1 55826U 23029AG  25206.74914222 -.00000060  00000+0 -18043-3 0  9994
2 55826  87.9293 339.5199 0001106 101.4134 258.7124 13.20771716118067
ONEWEB-0667             
1 55827U 23029AH  25206.43980568 -.00000016  00000+0 -70037-4 0  9990
2 55827  87.9284 339.5112 0002101  99.3265 260.8106 13.20771779118017
ONEWEB-0669             
1 55828U 23029AJ  25206.43506575 -.00000069  00000+0 -20202-3 0  9999
2 55828  87.9291 339.5494 0001791 120.7467 239.3843 13.20770792118019
ONEWEB-0670             
1 55829U 23029AK  25207.12369843 -.00000188  00000+0 -54066-3 0  9999
2 55829  87.9069 354.6272 0002216 101.7274 258.4104 13.14503691117288
ONEWEB-0671             
1 55830U 23029AL  25206.97547802 -.00000021  00000+0 -85309-4 0  9997
2 55830  87.9225   9.8299 0002051  94.7874 265.3493 13.19725426116561
ONEWEB-0672             
1 55831U 23029AM  25206.73334936  .00000049  00000+0  88613-4 0  9993
2 55831  87.9292 339.4761 0001587 102.6891 257.4420 13.20773151118051
ONEWEB-0673             
1 55832U 23029AN  25206.95178471  .00000054  00000+0  10256-3 0  9991
2 55832  87.9232   9.7978 0001940  87.0326 273.1029 13.19724829116587
ONEWEB-0674             
1 55833U 23029AP  25206.93975714  .00000222  00000+0  56404-3 0  9997
2 55833  87.9063 354.6487 0002225 105.3926 254.7450 13.14501463117232
ONEWEB-0675             
1 55834U 23029AQ  25206.51268487 -.00000033  00000+0 -11352-3 0  9999
2 55834  87.9222   9.9332 0001561  85.4227 274.7084 13.19724964115830
ONEWEB-0720             
1 55835U 23029AR  25206.95967238  .00000095  00000+0  20486-3 0  9992
2 55835  87.9227   9.8416 0002221  86.5634 273.5753 13.19727105116501
ONEWEB-0537             
1 56046U 23043A   25206.71165202 -.00000011  00000+0 -62468-4 0  9995
2 56046  87.9062 293.8352 0001793  99.5669 260.5665 13.16595230116004
ONEWEB-0538             
1 56047U 23043B   25207.23729719  .00000194  00000+0  47496-3 0  9996
2 56047  87.9053 293.7470 0001905  92.1568 267.9781 13.16593563116992
ONEWEB-0546             
1 56048U 23043C   25207.22462679  .00000137  00000+0  32464-3 0  9991
2 56048  87.9061 293.7268 0001362 110.5018 249.6259 13.16593132116987
ONEWEB-0547             
1 56049U 23043D   25207.22502429 -.00000190  00000+0 -49095-3 0  9999
2 56049  87.9272 309.0034 0002003  93.5088 266.6275 13.21825550116079
ONEWEB-0548             
1 56050U 23043E   25207.17396027  .00000084  00000+0  18626-3 0  9996
2 56050  87.9048 293.7678 0002358 108.9080 251.2307 13.16593356116976
ONEWEB-0549             
1 56051U 23043F   25207.21634237  .00000103  00000+0  21815-3 0  9996
2 56051  87.9273 309.0191 0002031  91.2624 268.8743 13.21824230116077
ONEWEB-0550             
1 56052U 23043G   25207.20375490  .00000054  00000+0  98705-4 0  9997
2 56052  87.9275 309.0154 0002006 104.7446 255.3911 13.21825552116079
ONEWEB-0551             
1 56053U 23043H   25206.71717209  .00000076  00000+0  16826-3 0  9998
2 56053  87.9086 324.3392 0002038  93.0871 267.0493 13.15547434113470
ONEWEB-0552             
1 56054U 23043J   25206.74326986 -.00000056  00000+0 -16830-3 0  9995
2 56054  87.9275 309.1160 0002261  96.6294 263.5098 13.21826190115101
ONEWEB-0553             
1 56055U 23043K   25206.69898885  .00000036  00000+0  60940-4 0  9990
2 56055  87.9053 293.8525 0001720 108.8100 251.3217 13.16595492116012
ONEWEB-0554             
1 56056U 23043L   25206.76232686  .00000028  00000+0  38786-4 0  9994
2 56056  87.9048 293.8670 0002176 106.0694 254.0676 13.16594352116004
